ONEWEB-0311             
1 49097U 21075Y   25216.59381950  .00000062  00000+0  12565-3 0  9999
2 49097  87.9029  68.8663 0001606  97.3555 262.7759 13.17648824191935
ONEWEB-0312             
1 49098U 21075Z   25216.83682472  .00000072  00000+0  15319-3 0  9991
2 49098  87.9028  68.8491 0001391  88.7082 271.4209 13.17650030192923
ONEWEB-0313             
1 49099U 21075AA  25216.53798774  .00000051  00000+0  96889-4 0  9991
2 49099  87.9021  68.9234 0001826  88.5200 271.6140 13.17650917191891
ONEWEB-0314             
1 49100U 21075AB  25216.88407801  .00000025  00000+0  31301-4 0  9999
2 49100  87.9035  68.7875 0001391  91.2813 268.8478 13.17649513192901
ONEWEB-0315             
1 49101U 21075AC  25216.90139319  .00000035  00000+0  61689-4 0  9992
2 49101  87.8851  53.5173 0001822  99.9193 260.2141 13.12444965194684
ONEWEB-0316             
1 49102U 21075AD  25216.52623432  .00000089  00000+0  19424-3 0  9993
2 49102  87.9131  38.3668 0001852  96.9088 263.2255 13.18686748195470
ONEWEB-0317             
1 49103U 21075AE  25216.89489940 -.00000172  00000+0 -51427-3 0  9992
2 49103  87.8847  53.5334 0001723  60.1017 300.0283 13.12444764194693
ONEWEB-0318             
1 49104U 21075AF  25216.52293132  .00000121  00000+0  27328-3 0  9994
2 49104  87.9130  38.3535 0001796  98.2828 261.8508 13.18687147195433
